1 39428U 13066N   13327.74023791  .00003690  00000-0  65916-3 0    24
2 39428 097.7886 040.2538 0131968 182.5522 177.5042 14.61944838   305